{
  "type": "FeatureCollection",
  "features": [
    {
      "type": "Feature",
      "properties": {
        "norad_id": 44333,
        "name": "AT&T T-16",
        "group": "intelsat",
        "lat": 0.0027562898801255535,
        "lon": 33.44908913835238,
        "alt_km": 35788.375724540514,
        "timestamp": "2025-12-07T03:52:32.138711+00:00",
        "meta_object_name": "AT&T T-16",
        "meta_object_id": "2019-034A",
        "meta_epoch": "2025-12-05T21:46:40.325088",
        "meta_mean_motion": 1.00271318,
        "meta_eccentricity": 6.937e-05,
        "meta_inclination": 0.0289,
        "meta_ra_of_asc_node": 66.1436,
        "meta_arg_of_pericenter": 104.688,
        "meta_mean_anomaly": 129.9319,
        "meta_ephemeris_type": 0,
        "meta_classification_type": "U",
        "meta_norad_cat_id": 44333,
        "meta_element_set_no": 999,
        "meta_rev_at_epoch": 2369,
        "meta_bstar": 0,
        "meta_mean_motion_dot": -1.06e-06,
        "meta_mean_motion_ddot": 0,
        "tle_line1": "1 44333U 19034A   25339.90741117 -.00000106  00000+0  00000+0 0  9992",
        "tle_line2": "2 44333   0.0289  66.1436 0000693 104.6880 129.9319  1.00271318 23696"
      },
      "geometry": {
        "type": "Point",
        "coordinates": [
          33.44908913835238,
          0.0027562898801255535
        ]
      }
    },
    {
      "type": "Feature",
      "properties": {
        "norad_id": 44476,
        "name": "INTELSAT 39 (IS-39)",
        "group": "intelsat",
        "lat": -0.028512224813318776,
        "lon": -163.73609930104857,
        "alt_km": 35783.942174083444,
        "timestamp": "2025-12-07T03:52:32.138723+00:00",
        "meta_object_name": "INTELSAT 39 (IS-39)",
        "meta_object_id": "2019-049B",
        "meta_epoch": "2025-12-06T12:14:50.229312",
        "meta_mean_motion": 1.00270371,
        "meta_eccentricity": 7.556e-05,
        "meta_inclination": 0.0176,
        "meta_ra_of_asc_node": 331.1774,
        "meta_arg_of_pericenter": 187.2045,
        "meta_mean_anomaly": 162.8225,
        "meta_ephemeris_type": 0,
        "meta_classification_type": "U",
        "meta_norad_cat_id": 44476,
        "meta_element_set_no": 999,
        "meta_rev_at_epoch": 2319,
        "meta_bstar": 0,
        "meta_mean_motion_dot": 4.1e-07,
        "meta_mean_motion_ddot": 0,
        "tle_line1": "1 44476U 19049B   25340.51030358  .00000041  00000+0  00000+0 0  9990",
        "tle_line2": "2 44476   0.0176 331.1774 0000755 187.2045 162.8225  1.00270371 23193"
      },
      "geometry": {
        "type": "Point",
        "coordinates": [
          -163.73609930104857,
          -0.028512224813318776
        ]
      }
    },
    {
      "type": "Feature",
      "properties": {
        "norad_id": 46114,
        "name": "GALAXY 30 (G-30)",
        "group": "intelsat",
        "lat": 0.018451098030259516,
        "lon": 9.336436832743292,
        "alt_km": 35791.04210036372,
        "timestamp": "2025-12-07T03:52:32.138735+00:00",
        "meta_object_name": "GALAXY 30 (G-30)",
        "meta_object_id": "2020-056C",
        "meta_epoch": "2025-12-06T13:09:03.573792",
        "meta_mean_motion": 1.00270345,
        "meta_eccentricity": 0.00024789,
        "meta_inclination": 0.0154,
        "meta_ra_of_asc_node": 344.878,
        "meta_arg_of_pericenter": 268.4209,
        "meta_mean_anomaly": 254.5503,
        "meta_ephemeris_type": 0,
        "meta_classification_type": "U",
        "meta_norad_cat_id": 46114,
        "meta_element_set_no": 999,
        "meta_rev_at_epoch": 1936,
        "meta_bstar": 0,
        "meta_mean_motion_dot": 4.4e-07,
        "meta_mean_motion_ddot": 0,
        "tle_line1": "1 46114U 20056C   25340.54795803  .00000044  00000+0  00000+0 0  9990",
        "tle_line2": "2 46114   0.0154 344.8780 0002478 268.4209 254.5503  1.00270345 19369"
      },
      "geometry": {
        "type": "Point",
        "coordinates": [
          9.336436832743292,
          0.018451098030259516
        ]
      }
    },
    {
      "type": "Feature",
      "properties": {
        "norad_id": 54026,
        "name": "GALAXY 33 (G-33)",
        "group": "intelsat",
        "lat": -0.005407793690174913,
        "lon": 1.3356667658037704,
        "alt_km": 35789.77933185501,
        "timestamp": "2025-12-07T03:52:32.138747+00:00",
        "meta_object_name": "GALAXY 33 (G-33)",
        "meta_object_id": "2022-128A",
        "meta_epoch": "2025-12-06T13:05:21.467904",
        "meta_mean_motion": 1.00270117,
        "meta_eccentricity": 0.00022437,
        "meta_inclination": 0.0181,
        "meta_ra_of_asc_node": 38.1266,
        "meta_arg_of_pericenter": 212.9098,
        "meta_mean_anomaly": 247.8858,
        "meta_ephemeris_type": 0,
        "meta_classification_type": "U",
        "meta_norad_cat_id": 54026,
        "meta_element_set_no": 999,
        "meta_rev_at_epoch": 1181,
        "meta_bstar": 0,
        "meta_mean_motion_dot": 8.6e-07,
        "meta_mean_motion_ddot": 0,
        "tle_line1": "1 54026U 22128A   25340.54538736  .00000086  00000+0  00000+0 0  9999",
        "tle_line2": "2 54026   0.0181  38.1266 0002243 212.9098 247.8858  1.00270117 11819"
      },
      "geometry": {
        "type": "Point",
        "coordinates": [
          1.3356667658037704,
          -0.005407793690174913
        ]
      }
    },
    {
      "type": "Feature",
      "properties": {
        "norad_id": 54027,
        "name": "GALAXY 34 (G-34)",
        "group": "intelsat",
        "lat": 0.018123896089062872,
        "lon": 5.385012648222873,
        "alt_km": 35789.10356712838,
        "timestamp": "2025-12-07T03:52:32.138759+00:00",
        "meta_object_name": "GALAXY 34 (G-34)",
        "meta_object_id": "2022-128B",
        "meta_epoch": "2025-12-06T13:07:17.966208",
        "meta_mean_motion": 1.00269823,
        "meta_eccentricity": 0.00012496,
        "meta_inclination": 0.0207,
        "meta_ra_of_asc_node": 344.4341,
        "meta_arg_of_pericenter": 262.3688,
        "meta_mean_anomaly": 256.6678,
        "meta_ephemeris_type": 0,
        "meta_classification_type": "U",
        "meta_norad_cat_id": 54027,
        "meta_element_set_no": 999,
        "meta_rev_at_epoch": 1198,
        "meta_bstar": 0,
        "meta_mean_motion_dot": 0,
        "meta_mean_motion_ddot": 0,
        "tle_line1": "1 54027U 22128B   25340.54673572  .00000000  00000+0  00000+0 0  9994",
        "tle_line2": "2 54027   0.0207 344.4341 0001249 262.3688 256.6678  1.00269823 11983"
      },
      "geometry": {
        "type": "Point",
        "coordinates": [
          5.385012648222873,
          0.018123896089062872
        ]
      }
    },
    {
      "type": "Feature",
      "properties": {
        "norad_id": 54243,
        "name": "GALAXY 31 (G-31)",
        "group": "intelsat",
        "lat": 0.0015762692940313751,
        "lon": 13.337039356737497,
        "alt_km": 35788.70156870751,
        "timestamp": "2025-12-07T03:52:32.138771+00:00",
        "meta_object_name": "GALAXY 31 (G-31)",
        "meta_object_id": "2022-153A",
        "meta_epoch": "2025-12-06T11:22:40.224288",
        "meta_mean_motion": 1.00270841,
        "meta_eccentricity": 0.00019716,
        "meta_inclination": 0.0114,
        "meta_ra_of_asc_node": 58.4305,
        "meta_arg_of_pericenter": 208.3356,
        "meta_mean_anomaly": 218.4165,
        "meta_ephemeris_type": 0,
        "meta_classification_type": "U",
        "meta_norad_cat_id": 54243,
        "meta_element_set_no": 999,
        "meta_rev_at_epoch": 520,
        "meta_bstar": 0,
        "meta_mean_motion_dot": 2e-07,
        "meta_mean_motion_ddot": 0,
        "tle_line1": "1 54243U 22153A   25340.47407667  .00000020  00000+0  00000+0 0  9996",
        "tle_line2": "2 54243   0.0114  58.4305 0001971 208.3356 218.4165  1.00270841  5203"
      },
      "geometry": {
        "type": "Point",
        "coordinates": [
          13.337039356737497,
          0.0015762692940313751
        ]
      }
    },
    {
      "type": "Feature",
      "properties": {
        "norad_id": 54244,
        "name": "GALAXY 32 (G-32)",
        "group": "intelsat",
        "lat": 0.02318735907086618,
        "lon": 43.34513838254993,
        "alt_km": 35788.10241533462,
        "timestamp": "2025-12-07T03:52:32.138783+00:00",
        "meta_object_name": "GALAXY 32 (G-32)",
        "meta_object_id": "2022-153B",
        "meta_epoch": "2025-12-06T11:00:49.366944",
        "meta_mean_motion": 1.00270596,
        "meta_eccentricity": 0.00026741,
        "meta_inclination": 0.0115,
        "meta_ra_of_asc_node": 13.2442,
        "meta_arg_of_pericenter": 291.9174,
        "meta_mean_anomaly": 204.5447,
        "meta_ephemeris_type": 0,
        "meta_classification_type": "U",
        "meta_norad_cat_id": 54244,
        "meta_element_set_no": 999,
        "meta_rev_at_epoch": 1121,
        "meta_bstar": 0,
        "meta_mean_motion_dot": -1.67e-06,
        "meta_mean_motion_ddot": 0,
        "tle_line1": "1 54244U 22153B   25340.45890471 -.00000167  00000+0  00000+0 0  9997",
        "tle_line2": "2 54244   0.0115  13.2442 0002674 291.9174 204.5447  1.00270596 11217"
      },
      "geometry": {
        "type": "Point",
        "coordinates": [
          43.34513838254993,
          0.02318735907086618
        ]
      }
    }
  ]
}